{"type": "FeatureCollection", "features": [ {"type": "Feature", "properties": {"norad_id": 34001, "name": "COSMOS 2251 DEB", "group": "cosmos-2251-debris", "lat": 41.965482560055534, "lon": -57.05890581808951, "alt_km": 752.6892083738376, "timestamp": "2025-12-09T05:43:21.119698+00:00", "meta": {"OBJECT_NAME": "COSMOS 2251 DEB", "OBJECT_ID": "1993-036GL", "EPOCH": "2025-12-08T06:49:41.535264", "MEAN_MOTION": 14.37089874, "ECCENTRICITY": 0.00197586, "INCLINATION": 74.0384, "RA_OF_ASC_NODE": 289.7793, "ARG_OF_PERICENTER": 11.781, "MEAN_ANOMALY": 139.0399, "EPHEMERIS_TYPE": 0, "CLASSIFICATION_TYPE": "U", "NORAD_CAT_ID": 34001, "ELEMENT_SET_NO": 999, "REV_AT_EPOCH": 88082, "BSTAR": 0.0004123146, "MEAN_MOTION_DOT": 1.201e-05, "MEAN_MOTION_DDOT": 0}, "tle": {"line1": "1 34001U 93036GL  25342.28450851  .00001201  00000+0  41231-3 0  9995", "line2": "2 34001  74.0384 289.7793 0019758  11.7810 139.0399 14.37089874880820"}}, "geometry": {"type": "Point", "coordinates": [-57.05890581808951, 41.965482560055534]}}, {"type": "Feature", "properties": {"norad_id": 34003, "name": "COSMOS 2251 DEB", "group": "cosmos-2251-debris", "lat": -54.26837604124938, "lon": 134.413316223814, "alt_km": 1150.7721768186575, "timestamp": "2025-12-09T05:43:21.119708+00:00", "meta": {"OBJECT_NAME": "COSMOS 2251 DEB", "OBJECT_ID": "1993-036GN", "EPOCH": "2025-12-08T07:46:12.371520", "MEAN_MOTION": 13.8411183, "ECCENTRICITY": 0.02740033, "INCLINATION": 74.0787, "RA_OF_ASC_NODE": 292.5761, "ARG_OF_PERICENTER": 45.6277, "MEAN_ANOMALY": 316.6938, "EPHEMERIS_TYPE": 0, "CLASSIFICATION_TYPE": "U", "NORAD_CAT_ID": 34003, "ELEMENT_SET_NO": 999, "REV_AT_EPOCH": 84364, "BSTAR": 0.0031943304, "MEAN_MOTION_DOT": 4.737e-05, "MEAN_MOTION_DDOT": 0}, "tle": {"line1": "1 34003U 93036GN  25342.32375430  .00004737  00000+0  31943-2 0  9996", "line2": "2 34003  74.0787 292.5761 0274003  45.6277 316.6938 13.84111830843645"}}, "geometry": {"type": "Point", "coordinates": [134.413316223814, -54.26837604124938]}}, {"type": "Feature", "properties": {"norad_id": 34004, "name": "COSMOS 2251 DEB", "group": "cosmos-2251-debris", "lat": 37.78181691944607, "lon": 126.85474936414506, "alt_km": 749.129069855252, "timestamp": "2025-12-09T05:43:21.119719+00:00", "meta": {"OBJECT_NAME": "COSMOS 2251 DEB", "OBJECT_ID": "1993-036GP", "EPOCH": "2025-12-08T09:11:31.695936", "MEAN_MOTION": 14.48939814, "ECCENTRICITY": 0.0033338, "INCLINATION": 74.0363, "RA_OF_ASC_NODE": 321.2778, "ARG_OF_PERICENTER": 334.1452, "MEAN_ANOMALY": 25.804, "EPHEMERIS_TYPE": 0, "CLASSIFICATION_TYPE": "U", "NORAD_CAT_ID": 34004, "ELEMENT_SET_NO": 999, "REV_AT_EPOCH": 87967, "BSTAR": 0.0019617699, "MEAN_MOTION_DOT": 7.463e-05, "MEAN_MOTION_DDOT": 0}, "tle": {"line1": "1 34004U 93036GP  25342.38300574  .00007463  00000+0  19618-2 0  9994", "line2": "2 34004  74.0363 321.2778 0033338 334.1452  25.8040 14.48939814879675"}}, "geometry": {"type": "Point", "coordinates": [126.85474936414506, 37.78181691944607]}}, {"type": "Feature", "properties": {"norad_id": 34005, "name": "COSMOS 2251 DEB", "group": "cosmos-2251-debris", "lat": 16.014487820992592, "lon": 35.4063045683986, "alt_km": 772.5527417756848, "timestamp": "2025-12-09T05:43:21.119730+00:00", "meta": {"OBJECT_NAME": "COSMOS 2251 DEB", "OBJECT_ID": "1993-036GQ", "EPOCH": "2025-12-08T19:20:38.641920", "MEAN_MOTION": 14.40300566, "ECCENTRICITY": 0.00207, "INCLINATION": 74.0449, "RA_OF_ASC_NODE": 220.9149, "ARG_OF_PERICENTER": 339.7729, "MEAN_ANOMALY": 102.1513, "EPHEMERIS_TYPE": 0, "CLASSIFICATION_TYPE": "U", "NORAD_CAT_ID": 34005, "ELEMENT_SET_NO": 999, "REV_AT_EPOCH": 88322, "BSTAR": 0.00021153, "MEAN_MOTION_DOT": 6.45e-06, "MEAN_MOTION_DDOT": 0}, "tle": {"line1": "1 34005U 93036GQ  25342.80600280  .00000645  00000+0  21153-3 0  9992", "line2": "2 34005  74.0449 220.9149 0020700 339.7729 102.1513 14.40300566883223"}}, "geometry": {"type": "Point", "coordinates": [35.4063045683986, 16.014487820992592]}}, {"type": "Feature", "properties": {"norad_id": 34006, "name": "COSMOS 2251 DEB", "group": "cosmos-2251-debris", "lat": 67.99773462827854, "lon": -74.70778602933972, "alt_km": 569.3480446849653, "timestamp": "2025-12-09T05:43:21.119741+00:00", "meta": {"OBJECT_NAME": "COSMOS 2251 DEB", "OBJECT_ID": "1993-036GR", "EPOCH": "2025-12-08T05:56:44.562336", "MEAN_MOTION": 14.94253736, "ECCENTRICITY": 0.00116603, "INCLINATION": 74.0536, "RA_OF_ASC_NODE": 152.3261, "ARG_OF_PERICENTER": 104.3242, "MEAN_ANOMALY": 73.8105, "EPHEMERIS_TYPE": 0, "CLASSIFICATION_TYPE": "U", "NORAD_CAT_ID": 34006, "ELEMENT_SET_NO": 999, "REV_AT_EPOCH": 88601, "BSTAR": 0.0040023646, "MEAN_MOTION_DOT": 0.00043241, "MEAN_MOTION_DDOT": 0}, "tle": {"line1": "1 34006U 93036GR  25342.24773799  .00043241  00000+0  40024-2 0  9993", "line2": "2 34006  74.0536 152.3261 0011660 104.3242  73.8105 14.94253736886011"}}, "geometry": {"type": "Point", "coordinates": [-74.70778602933972, 67.99773462827854]}}, {"type": "Feature", "properties": {"norad_id": 34007, "name": "COSMOS 2251 DEB", "group": "cosmos-2251-debris", "lat": 54.04575820397464, "lon": 16.908254895389106, "alt_km": 662.7859608092222, "timestamp": "2025-12-09T05:43:21.119752+00:00", "meta": {"OBJECT_NAME": "COSMOS 2251 DEB", "OBJECT_ID": "1993-036GS", "EPOCH": "2025-12-08T17:59:12.798816", "MEAN_MOTION": 14.64743596, "ECCENTRICITY": 0.0044461, "INCLINATION": 74.0194, "RA_OF_ASC_NODE": 354.5773, "ARG_OF_PERICENTER": 130.8247, "MEAN_ANOMALY": 229.679, "EPHEMERIS_TYPE": 0, "CLASSIFICATION_TYPE": "U", "NORAD_CAT_ID": 34007, "ELEMENT_SET_NO": 999, "REV_AT_EPOCH": 89021, "BSTAR": 0.0010987, "MEAN_MOTION_DOT": 5.913e-05, "MEAN_MOTION_DDOT": 0}, "tle": {"line1": "1 34007U 93036GS  25342.74945369  .00005913  00000+0  10987-2 0  9992", "line2": "2 34007  74.0194 354.5773 0044461 130.8247 229.6790 14.64743596890213"}}, "geometry": {"type": "Point", "coordinates": [16.908254895389106, 54.04575820397464]}}, {"type": "Feature", "properties": {"norad_id": 34008, "name": "COSMOS 2251 DEB", "group": "cosmos-2251-debris", "lat": 18.945478621190627, "lon": 151.27858981825997, "alt_km": 798.2660998068695, "timestamp": "2025-12-09T05:43:21.119762+00:00", "meta": {"OBJECT_NAME": "COSMOS 2251 DEB", "OBJECT_ID": "1993-036GT", "EPOCH": "2025-12-08T11:05:59.840160", "MEAN_MOTION": 14.33141983, "ECCENTRICITY": 0.00241764, "INCLINATION": 74.0341, "RA_OF_ASC_NODE": 338.3357, "ARG_OF_PERICENTER": 334.3681, "MEAN_ANOMALY": 144.1099, "EPHEMERIS_TYPE": 0, "CLASSIFICATION_TYPE": "U", "NORAD_CAT_ID": 34008, "ELEMENT_SET_NO": 999, "REV_AT_EPOCH": 87903, "BSTAR": 0.00023568978, "MEAN_MOTION_DOT": 6.23e-06, "MEAN_MOTION_DDOT": 0}, "tle": {"line1": "1 34008U 93036GT  25342.46249815  .00000623  00000+0  23569-3 0  9999", "line2": "2 34008  74.0341 338.3357 0024176 334.3681 144.1099 14.33141983879038"}}, "geometry": {"type": "Point", "coordinates": [151.27858981825997, 18.945478621190627]}}, {"type": "Feature", "properties": {"norad_id": 34009, "name": "COSMOS 2251 DEB", "group": "cosmos-2251-debris", "lat": -14.887306815442805, "lon": 167.69985916134146, "alt_km": 800.0335705268808, "timestamp": "2025-12-09T05:43:21.119773+00:00", "meta": {"OBJECT_NAME": "COSMOS 2251 DEB", "OBJECT_ID": "1993-036GU", "EPOCH": "2025-12-08T17:54:38.020032", "MEAN_MOTION": 14.33217854, "ECCENTRICITY": 0.0026381, "INCLINATION": 74.037, "RA_OF_ASC_NODE": 344.2349, "ARG_OF_PERICENTER": 55.1474, "MEAN_ANOMALY": 121.6978, "EPHEMERIS_TYPE": 0, "CLASSIFICATION_TYPE": "U", "NORAD_CAT_ID": 34009, "ELEMENT_SET_NO": 999, "REV_AT_EPOCH": 87888, "BSTAR": 0.00026329, "MEAN_MOTION_DOT": 7.01e-06, "MEAN_MOTION_DDOT": 0}, "tle": {"line1": "1 34009U 93036GU  25342.74627338  .00000701  00000+0  26329-3 0  9995", "line2": "2 34009  74.0370 344.2349 0026381  55.1474 121.6978 14.33217854878885"}}, "geometry": {"type": "Point", "coordinates": [167.69985916134146, -14.887306815442805]}}, {"type": "Feature", "properties": {"norad_id": 34010, "name": "COSMOS 2251 DEB", "group": "cosmos-2251-debris", "lat": 69.73575438666964, "lon": -18.344430720712094, "alt_km": 502.69601002349646, "timestamp": "2025-12-09T05:43:21.119783+00:00", "meta": {"OBJECT_NAME": "COSMOS 2251 DEB", "OBJECT_ID": "1993-036GV", "EPOCH": "2025-12-08T07:13:58.609920", "MEAN_MOTION": 15.17488882, "ECCENTRICITY": 0.00046055, "INCLINATION": 73.999, "RA_OF_ASC_NODE": 292.6061, "ARG_OF_PERICENTER": 64.0922, "MEAN_ANOMALY": 296.0748, "EPHEMERIS_TYPE": 0, "CLASSIFICATION_TYPE": "U", "NORAD_CAT_ID": 34010, "ELEMENT_SET_NO": 999, "REV_AT_EPOCH": 89218, "BSTAR": 0.004890059, "MEAN_MOTION_DOT": 0.00099367, "MEAN_MOTION_DDOT": 0}, "tle": {"line1": "1 34010U 93036GV  25342.30137280  .00099367  00000+0  48901-2 0  9996", "line2": "2 34010  73.9990 292.6061 0004605  64.0922 296.0748 15.17488882892187"}}, "geometry": {"type": "Point", "coordinates": [-18.344430720712094, 69.73575438666964]}}, {"type": "Feature", "properties": {"norad_id": 34011, "name": "COSMOS 2251 DEB", "group": "cosmos-2251-debris", "lat": 73.69683364453206, "lon": 78.11352230899628, "alt_km": 723.8850647903582, "timestamp": "2025-12-09T05:43:21.119794+00:00", "meta": {"OBJECT_NAME": "COSMOS 2251 DEB", "OBJECT_ID": "1993-036GW", "EPOCH": "2025-12-08T09:18:38.529216", "MEAN_MOTION": 14.41737807, "ECCENTRICITY": 0.00353193, "INCLINATION": 74.0153, "RA_OF_ASC_NODE": 338.2241, "ARG_OF_PERICENTER": 63.2584, "MEAN_ANOMALY": 297.2179, "EPHEMERIS_TYPE": 0, "CLASSIFICATION_TYPE": "U", "NORAD_CAT_ID": 34011, "ELEMENT_SET_NO": 999, "REV_AT_EPOCH": 87853, "BSTAR": 0.0012294556, "MEAN_MOTION_DOT": 4.018e-05, "MEAN_MOTION_DDOT": 0}, "tle": {"line1": "1 34011U 93036GW  25342.38794594  .00004018  00000+0  12295-2 0  9998", "line2": "2 34011  74.0153 338.2241 0035319  63.2584 297.2179 14.41737807878533"}}, "geometry": {"type": "Point", "coordinates": [78.11352230899628, 73.69683364453206]}}]}